facility_name,zip_code,State,Country,FID,x,y
"2 Blondes All Breed Rescue, Inc",80232,Colorado,United States,71,-105.0877841,39.6926277
"2Nd Chance Vizsla Rescue, Inc",80524,Colorado,United States,496,-105.049207,40.61255
4 Paws 4 Life Rescue,80135,Colorado,United States,202,-105.0012364,39.3462091
5280 Reptile Room North,80233,Colorado,United States,519,-104.976227,39.913286
5280 Reptile Room West,80033,Colorado,United States,458,-105.110438,39.773954
7 Paws Rescue Ranch,81621,Colorado,United States,275,-107.0371598,39.3657644
9 Lives Rescue,80907,Colorado,United States,235,-104.8244821,38.8777728
A Cat Rescue Out In The Sticks,80727,Colorado,United States,229,-102.4932443,40.1119887
A Friend Of Jack Rescue,80223,Colorado,United States,64,-105.0024501,39.7006652
Adams County Animal Shelter And Adoption Center,80601,Colorado,United States,340,-104.872038,39.891679
Adoptable Animal Rescue Force,80814,Colorado,United States,471,-105.1758334,38.9334702
Agents Of Chaos TNR,80601,Colorado,United States,469,-104.797027,39.976288
"All Aboard Animal Rescue And Shelter, Inc",80526,Colorado,United States,50,-105.109901,40.524375
All Breed Rescue And Training,80907,Colorado,United States,501,-104.823227,38.890187
All Mixed Up Dog Rescue,80701,Colorado,United States,227,-103.7920688,40.237864
All Paws Matter,80110,Colorado,United States,398,-105.0042141,39.6414157
All Points West German Shorthaired Pointer Rescue,80107,Colorado,United States,326,-104.5959824,39.4058887
Almost Home Adoptions,80031,Colorado,United States,319,-105.062834,39.856139
Amigos De Los Animales Colorado,80128,Colorado,United States,187,-105.077026,39.576485
Angels With Paws,80215,Colorado,United States,294,-105.109303,39.746625
Animal Aid Of Colorado,80301,Colorado,United States,76,-105.2167551,40.0552951
"Animal Attraction, Llc",11747,Colorado,United States,454,-104.696552,40.396634
Animal Clinic Of Julesburg,80737,Colorado,United States,20,-102.269791,40.981255
Animal Friends Alliance,80524,Colorado,United States,49,-105.034133,40.580412
Animal Hospital Of Telluride,81435,Colorado,United States,11,-107.913612,37.947641
Animal House Pets And Grooming,91362,Colorado,United States,560,-118.113212,34.688435
Animal Kingdom,32830,Colorado,United States,456,-104.607105,38.259538
Animal Kingdom And Ponds By Jeff,81003,Colorado,United States,558,-104.607105,38.259538
"Animal Rescue Connection, Inc",80502,Colorado,United States,443,-105.1038528,40.161927
Animal Rescue Of The Rockies,80012,Colorado,United States,291,-106.046398,39.483823
Animal Welfare And Protection Society,81003,Colorado,United States,116,-104.6237794,38.2805839
Animal Welfare Coalition Of Northeastern New Mexico,87701,Colorado,United States,602,-105.208821,35.608134
Annie's Orphans,81303,Colorado,United States,255,-107.8702872,37.1514473
Annie's Orphans,81303,Colorado,United States,504,-107.8702872,37.1514473
Archway Adventures,80644,Colorado,United States,226,-104.5263739,40.3657853
Ark - Valley Humane Society,81211,Colorado,United States,24,-106.137701,38.824808
Ark - Valley Humane Society - Main Shelter,81211,Colorado,United States,335,-106.137701,38.824808
Ark - Valley Humane Society - South,81201,Colorado,United States,160,-106.137701,38.824808
Ark - Valley Humane Society (Buena Vista),81211,Colorado,United States,161,-106.137701,38.824808
Ark - Valley Humane Society (Salida),81201,Colorado,United States,349,-106.137701,38.824808
Ark - Valley Humane Society South,81201,Colorado,United States,330,-106.137701,38.824808
"Ark - Valley Humane Society, Inc The Sunshine Shelter",81211,Colorado,United States,354,-106.137701,38.824808
Arrowhead Correctional Center,81215,Colorado,United States,588,-105.158929,38.435741
Aspen / Pitkin County Animal Shelter,81611,Colorado,United States,139,-106.8661084,39.2256266
Aspen Boarding Kennel And Animal Shelter,81611,Colorado,United States,162,-106.8352329,39.1975472
Aurora Animal Shelter,80011,Colorado,United States,339,-104.804225,39.761568
Avalon Aviary Bird Store,80538,Colorado,United States,526,-105.076996,40.427551
"Awr Cat Tails Rescue, Inc",81005,Colorado,United States,422,-104.6765673,38.2390751
Aztec Animal Shelter,87410,Colorado,United States,348,-105.610373,39.763506
Barkabull,80918,Colorado,United States,444,-104.7774729,38.9110462
Barnwater Cats Rescue Organization,80210,Colorado,United States,433,-104.959377,39.677389
Bear Creek Animal Hospital,80235,Colorado,United States,4,-107.517771,40.512389
Beasties A Pet Store And More,81008,Colorado,United States,532,-104.6237755,38.3202916
Bernese Mountain Dog Club Of The Rockies,80126,Colorado,United States,184,-104.958278,39.545173
"Big Bones Canine Rescue Service, Inc",80550,Colorado,United States,109,-104.9158188,40.4699666
"Big Dogs Huge Paws, Inc",80118,Colorado,United States,174,-104.8941663,39.2126373
Big Sky Cares,70437,Colorado,United States,302,-90.18546,30.622933
Black Forest Animal Sanctuary / Paws N Hooves,80908,Colorado,United States,357,-104.6864455,39.0211758
Black Ops Rescue,80125,Colorado,United States,183,-105.04448,39.4938284
Blackhat Humane Society,81301,Colorado,United States,129,-107.852156,37.330885
Blue Lion Rescue,80132,Colorado,United States,191,-104.8459213,39.0983576
Blue Moon Akita Rescue,80132,Colorado,United States,416,-104.8459213,39.0983576
Blue Sky Satos Animal Rescue,80138,Colorado,United States,204,-104.714331,39.5061834
Bounce Animal Rescue,80526,Colorado,United States,103,-105.024357,40.527405
Breeder Release Adoption Service,80023,Colorado,United States,316,-105.0110158,39.9620137
Breeder Release Adoption Service,80023,Colorado,United States,392,-105.0110158,39.9620137
Brighter Days Dog Rescue,80124,Colorado,United States,181,-104.885605,39.540524
Broadview Kennels,80132,Colorado,United States,549,-104.8459213,39.0983576
"Buck'N - R - Ranch Animal Rescue, Inc",80808,Colorado,United States,283,-104.679001,39.377359
"Canine Candor, Inc",80550,Colorado,United States,557,-104.9158188,40.4699666
Canine Partners Of The Rockies,80011,Colorado,United States,266,-104.8050485,39.7374043
Cat Care Durango,81303,Colorado,United States,10,-107.87647,37.247367
Cat Care Society,80214,Colorado,United States,59,-105.059807,39.726674
Cats League And Assistance Of The Western (SLOPE),81505,Colorado,United States,293,-108.5987957,39.1046561
Cavies And Canines Animal Rescue,80525,Colorado,United States,102,-105.0568967,40.5295483
"Cavy Care, Inc",80015,Colorado,United States,310,-104.805613,39.637037
Cayleb's Kindred Senior Dog Rescue,80203,Colorado,United States,513,-104.9811107,39.7338268
Charlene Wolfe,,Colorado,United States,265,-104.822124,39.983248
Cheyenne Animal Shelter,82007,Colorado,United States,346,-104.845836,41.110593
"Chihuahua And Small Dog Rescue, Inc",80931,Colorado,United States,473,-104.720445,38.748098
"Chow Down, Inc",80439,Colorado,United States,450,-105.346737,39.6422278
Circle 2 Ranch - An Animal Sanctuary,80439,Colorado,United States,286,-105.346737,39.6422278
Circle 2 Rescue,80437,Colorado,United States,81,-105.343261,39.650171
City Of Aurora Animal Services,80011,Colorado,United States,562,-104.80406,39.74653
City Of Aurora Animal Shelter Petsmart,60504,Colorado,United States,27,-104.804225,39.761568
City Of Brighton Animal Shelter,80601,Colorado,United States,350,-104.8173798,39.9785248
City Of Brush Animal Shelter,80723,Colorado,United States,53,-103.626225,40.254775
City Of Burlington Animal Shelter,27217,Colorado,United States,30,-102.27146,39.30449
City Of Cortez Animal Shelter,81321,Colorado,United States,131,-108.5860035,37.3483018
City Of Cripple Creek Animal Shelter,80813,Colorado,United States,112,-105.1765489,38.7516779
City Of La Junta Animal Shelter,81050,Colorado,United States,117,-103.5164593,38.0396028
City Of Lamar Animal Shelter,81052,Colorado,United States,151,-102.602746,38.04848
City Of Las Animas / County Of Bent Animal Shelter,81054,Colorado,United States,118,-103.2384722,38.05402778
City Of Leadville / Lake County,80461,Colorado,United States,580,-106.285165,39.251398
City Of Montrose Animal Services,81401,Colorado,United States,582,-107.875314,38.479375
City Of Montrose Animal Shelter,81401,Colorado,United States,132,-107.916229,38.512007
City Of Rocky Ford Animal Shelter,81067,Colorado,United States,120,-103.719699,38.050266
City Of Trinidad,81082,Colorado,United States,569,-104.508779,37.167941
City Of Walsenburg Animal Shelter,81089,Colorado,United States,121,-104.821366,37.607076
City Of Wray Animal Shelter,80758,Colorado,United States,54,-102.2210255,40.0806473
City Of Yuma Animal Shelter,80759,Colorado,United States,55,-102.7236867,40.1225517
Clawa Animal Rescue,80260,Colorado,United States,75,-105.010682,39.863478
Claws Furrever Home Sanctuary,81505,Colorado,United States,380,-108.5987957,39.1046561
Clearwater Dog Training And Nikeno's Second Chances,80215,Colorado,United States,476,-105.095199,39.739049
Colorado Animal Care Foundation (CACF),80124,Colorado,United States,590,-104.885605,39.540524
Colorado Animal Rescue,81601,Colorado,United States,262,-107.23574,39.473155
Colorado Animal Welfare League,80104,Colorado,United States,144,-104.859801,39.366531
Colorado Basenji Rescue,80212,Colorado,United States,57,-105.03951,39.78717
"Colorado Beagle Rescue, Inc",80161,Colorado,United States,206,-104.963242,39.595689
Colorado Bullies And More,81069,Colorado,United States,252,-104.9211403,37.9027649
Colorado Canine Rescue,80241,Colorado,United States,515,-104.9584116,39.9267052
Colorado Corgis And Friends,80226,Colorado,United States,68,-105.0808118,39.711106
Colorado Feline Foster Rescue,80465,Colorado,United States,87,-105.18651,39.604536
Colorado Greyhound Adoption,80161,Colorado,United States,207,-104.9630462,39.5951787
Colorado Herding Dog Rescue,80210,Colorado,United States,219,-104.959377,39.677389
Colorado House Rabbit Society,80516,Colorado,United States,420,-105.0412428,40.0388188
Colorado Japanese Chin Rescue,80047,Colorado,United States,322,-104.791202,39.706392
Colorado Kitty Coalition,80526,Colorado,United States,104,-105.11165,40.5409358
"Colorado Liaison For Animal Welfare Alliance, Inc",80001,Colorado,United States,596,-105.0861445,39.8035051
"Colorado Peke And Pom Rescue, Inc",80465,Colorado,United States,395,-105.078482,39.69069
Colorado Pug Rescue,80136,Colorado,United States,203,-106.938661,38.508248
Colorado Puppy Rescue Of Colorado,80134,Colorado,United States,195,-104.772206,39.540369
Colorado Puppy Rescue Of Colorado,80134,Colorado,United States,453,-104.772206,39.540369
Colorado Reptile Humane Society,80504,Colorado,United States,97,-105.047633,40.202823
"Colorado Rescue Tails, Inc",81416,Colorado,United States,446,-108.0492806,38.7240801
Colorado Rez Muttz,80026,Colorado,United States,508,-105.0992873,39.9942396
Colorado Rhodesian Ridgeback Rescue,80112,Colorado,United States,400,-104.8709549,39.5733964
Colorado Saint Bernard Rescue,80250,Colorado,United States,393,-104.943248,39.680308
Colorado Senior Dog Rescue And Hospice,80237,Colorado,United States,72,-104.8999273,39.6387328
Colorado Senior Dog Rescue And Hospice,80237,Colorado,United States,465,-104.8999273,39.6387328
Colorado Sheltie Rescue,81007,Colorado,United States,438,-104.7459759,38.3313902
Colorado Shiba Inu Rescue,80047,Colorado,United States,323,-104.791202,39.706392
"Colorado Springs All Breed Rescue, Inc",80907,Colorado,United States,236,-104.8244821,38.8777728
"Colorado St. Bernard Rescue, Inc",80250,Colorado,United States,73,-104.943248,39.680308
"Colorado Wyoming Vizsla Rescue Group, Inc",80919,Colorado,United States,244,-104.8519382,38.9235861
Compassion Project Rescue,81621,Colorado,United States,475,-107.0371598,39.3657644
Cooper's Companions Animal Rescue,81006,Colorado,United States,249,-104.5335437,38.2506292
Copper Fox Ranch Arctic Breed And Wolf Dog Rescue,80621,Colorado,United States,409,-104.797028,40.094615
Cortez Animal Shelter,81321,Colorado,United States,344,-105.610373,39.763506
County Of Bent / City Of Las Animas Animal Shelter,81054,Colorado,United States,351,-103.2384722,38.05402778
County Of Clear Creek Animal Shelter,80444,Colorado,United States,43,-105.6927675,39.7123274
County Of Park Animal Shelter,80440,Colorado,United States,42,-105.990529,39.227199
"Creature Box, Llc",80918,Colorado,United States,540,-104.7774729,38.9110462
Cripple Creek Animal Shelter,80813,Colorado,United States,328,-105.1765489,38.7516779
"Cszdvm, Llc",,Colorado,United States,19,-105.5478164,38.99855056
Cuddle Bug Chinchillas,80013,Colorado,United States,307,-104.777229,39.661458
Dakota Ranch Dog Rescue,80830,Colorado,United States,410,-103.9034433,39.1258963
"Dalmatian Rescue Of Colorado, Inc",80538,Colorado,United States,106,-105.0776131,40.42997
"Dancing Dog Rescue And Recovery Ranch, Inc",80022,Colorado,United States,361,-104.8880971,39.8525855
"Deanna Davidson - Callahan, Rainbow Otter Animal Sanctuary",80540,Colorado,United States,278,-105.3197375,40.2381362
Delta County Citizens For Animal Welfare And Shelter,81428,Colorado,United States,135,-107.6062718,38.8608232
Delta County Humane Society,81416,Colorado,United States,134,-104.705985,40.369431
"Demi's Animal Rescue, Inc",80215,Colorado,United States,60,-105.1136259,39.7448093
Denkai Animal Sanctuary,80751,Colorado,United States,373,-108.7250056,37.5377318
Denver Animal Protection,80223,Colorado,United States,589,-105.0024501,39.7006652
Denver Animal Shelter,80204,Colorado,United States,36,-105.00557,39.71652
Denver Cat Company,80205,Colorado,United States,468,-105.044144,39.771736
Denver Cat Rescue,80212,Colorado,United States,58,-105.0477015,39.771133
Denver Dachshunds Rescue And Transport,80226,Colorado,United States,69,-105.0808118,39.711106
Denver Dumb Friends League - San Luis Valley Animal Center,81101,Colorado,United States,122,-105.8728626,37.4709282
Denver Kittens,80224,Colorado,United States,67,-104.909244,39.691772
"Denver Samoyed Association, Inc (Denver Samoyed Rescue)",80001,Colorado,United States,482,-105.0861445,39.8035051
Divide Creek Animal Hospital,81652,Colorado,United States,18,-104.607262,39.374264
"Divine Feline, Inc",80223,Colorado,United States,441,-105.0024501,39.7006652
Dizzy Dog Animal Rescue,80465,Colorado,United States,88,-105.18651,39.604536
"Dmk Rehoming, Inc",81027,Colorado,United States,251,-103.720907,37.038659
Do Over Dogs A Second Chance At Life,80020,Colorado,United States,315,-105.06193,39.924513
Doberman Rescue Of Colorado,80210,Colorado,United States,405,-104.959377,39.677389
Doggy Dog World Rescue,80125,Colorado,United States,484,-105.04448,39.4938284
Dogs Unbroken,80503,Colorado,United States,95,-105.16373,40.149198
Douglas County Canine Rescue,80104,Colorado,United States,268,-104.8605086,39.3666208
Dumb Friends League,80112,Colorado,United States,146,-104.902524,39.679015
Dumb Friends League - Buddy Center,80109,Colorado,United States,34,-104.866272,39.407351
Dumb Friends League - Malone Center,80231,Colorado,United States,37,-104.902524,39.679015
Dumb Friends League - Veterinary Hospital At Csu Spur,80216,Colorado,United States,1,-104.9621248,39.7837762
Dumb Friends League (Denver),80231,Colorado,United States,165,-104.902524,39.679015
Dumb Friends League / Petco,80231,Colorado,United States,352,-104.902524,39.679015
Dumb Friends League Buddy Center,80109,Colorado,United States,145,-104.866272,39.407351
Dumb Friends League San Luis Valley Animal Center,81101,Colorado,United States,153,-105.8728626,37.4709282
"Duncan's Place, A Cat Sanctuary",80537,Colorado,United States,282,-105.106423,40.381482
Durango Animal Connection,81303,Colorado,United States,256,-107.8563988,37.2020876
Eagle County Animal Shelter And Services,81631,Colorado,United States,140,-106.848339,39.651868
Eagle Valley Humane Society,81631,Colorado,United States,141,-106.827333,39.657911
Eastern Plains Animal Welfare Alliance EPAWA,80807,Colorado,United States,111,-102.267003,39.310563
Eaton Animal Den,80615,Colorado,United States,528,-104.711507,40.521544
Echo Acres,80439,Colorado,United States,276,-105.4170431,39.6347085
El Paso County Canine Rescue,80920,Colorado,United States,245,-104.7710803,38.9510731
English Springer Rescue America,80161,Colorado,United States,208,-104.9630462,39.5951787
"Estes Park Pet Lodge, Inc",80517,Colorado,United States,452,-105.501978,40.370811
Evergreen Animal Protective League,80437,Colorado,United States,41,-105.316116,39.636073
Every Creature Counts,80621,Colorado,United States,397,-104.797028,40.094615
"Exotic Bird Ranch, Inc",80231,Colorado,United States,370,-104.870982,39.653674
Farfel's Farm And Rescue,80302,Colorado,United States,77,-105.283457,40.016871
"Feeders Unlimited, Llc",80631,Colorado,United States,529,-104.71111,40.424803
Feline Rescue Network / Look What The Cat Brought In,80909,Colorado,United States,238,-104.788995,38.838265
Fen's Haven,80126,Colorado,United States,366,-104.958278,39.545173
Ferret Dreams Rescue And Adoption,80210,Colorado,United States,220,-104.977844,39.678375
"Fins And Feathers, Llc",80918,Colorado,United States,531,-104.774746,38.903714
Flanders's Flying Friends Co,80221,Colorado,United States,491,-105.0114669,39.8237681
Flitesong Cage Bird Sanctuary,80138,Colorado,United States,287,-104.714331,39.5061834
Foothills Animal Shelter,80401,Colorado,United States,39,-105.173568,39.724629
"For Pets' Sake, Inc",53149,Colorado,United States,32,-88.31717,42.865754
"For The Howl Of It Recue, Inc",80905,Colorado,United States,500,-104.8341973,38.8139004
For The Love Of Birds,80603,Colorado,United States,408,-104.7446887,40.0032809
For The Love Of Paws,80226,Colorado,United States,391,-105.0808118,39.711106
Forgotten Felines Rescue,80014,Colorado,United States,308,-104.8416471,39.6631553
Fort Collins Cat Rescue And Spay / Neuter Clinic,80524,Colorado,United States,421,-105.03414,40.579748
Fort Lupton Police Department,80621,Colorado,United States,563,-104.812585,40.079636
Fort Lupton Veterinary Hospital,80621,Colorado,United States,14,-104.797028,40.094615
Fort Morgan Humane Society,80701,Colorado,United States,52,-103.8013799,40.2458375
Foster Kitten Mama Rescue,80108,Colorado,United States,166,-104.856713,39.42962
Found Nation Animal Rescue,98032,Colorado,United States,439,-86.316397,33.166115
Found Nation Dog Rescue,80031,Colorado,United States,385,-105.0389909,39.868973
"Freedom Service Dogs, Inc",80112,Colorado,United States,414,-104.822097,39.58618
Friends Of Cedaredge Animal Control,81413,Colorado,United States,586,-107.9253125,38.9015825
Friends Of Retired Greyhounds,80614,Colorado,United States,221,-104.9607779,39.9237425
Friends Of Shawnee Animals,74855,Colorado,United States,413,-105.5500938,39.4194324
"From Forgotten To Forever Rescue And Transport, Inc",81089,Colorado,United States,253,-104.7622,38.8944
"From Forgotten To Forever Rescue And Transport, Inc",81089,Colorado,United States,502,-104.7622,38.8944
Fromm Rescue To Forever,91006,Colorado,United States,390,-104.7622,38.8944
Front Range Freedom Rescue,80120,Colorado,United States,175,-105.004674,39.596031
Front Range German Shepherd Rescue,80223,Colorado,United States,65,-105.0024501,39.7006652
Front Range Reptiles,80525,Colorado,United States,534,-105.096509,40.552044
Fureverdog Rescue And Boarding,80621,Colorado,United States,223,-104.755328,40.114917
Garden Valley Veterinary Hospital,80550,Colorado,United States,16,-104.888515,40.472295
"Garfield County Animal Welfare Foundation, Inc",81650,Colorado,United States,605,-107.7826127,39.5486987
German Shepherd Rescue Of Central Colorado,81211,Colorado,United States,445,-106.1527095,38.8370906
German Shepherd Rescue Of The Rockies,80701,Colorado,United States,517,-103.7920688,40.237864
Golden Growls Senior Rescue,33318,Colorado,United States,300,-105.216019,39.749672
"Golden Retriever Freedom Rescue, Inc",80250,Colorado,United States,74,-104.943248,39.680308
Golden Retriever Rescue Of The Rockies,80007,Colorado,United States,306,-105.185166,39.837728
Graceland Animal Rescue,81507,Colorado,United States,447,-108.6344419,39.0739795
Graceland Animal Rescue And Sanctuary,81507,Colorado,United States,280,-108.6344419,39.0739795
Grand County Animal Shelter,80446,Colorado,United States,44,-105.9555,40.08563
Grand Rivers Humane Society,81507,Colorado,United States,138,-108.545611,39.066958
Grand Valley Pit Crew,81501,Colorado,United States,389,-108.5510426,39.07030418
Gray Muzzle Society,80465,Colorado,United States,89,-105.18651,39.604536
Great Pyrenees Rescue And Sanctuary,80831,Colorado,United States,377,-104.5661723,38.9643193
Greenhorn Valley Animal Rescue,81040,Colorado,United States,399,-105.1655978,37.7827684
Grey Ghost Weimaraner Rescue,80132,Colorado,United States,192,-104.8459213,39.0983576
Gritty Pittie Rescue,80501,Colorado,United States,493,-105.1043422,40.1706825
Gunnison Animal Shelter,81230,Colorado,United States,355,-105.610373,39.763506
"Gunnison Underdog Rescue, Inc",81230,Colorado,United States,503,-106.950066,38.542436
"Gunnison Valley Animal Welfare League, Inc",81230,Colorado,United States,128,-106.94076,38.550675
Happily Ever After Canine Rescue,80525,Colorado,United States,497,-105.0568967,40.5295483
"Happy Cats Haven, Inc",80829,Colorado,United States,230,-104.900468,38.856439
Happy Haven Farm And Sanctuary,80103,Colorado,United States,382,-104.1899423,39.7740998
"Happy Hounds Rescue, Inc",80438,Colorado,United States,83,-105.6876831,39.7614754
Happy Little Rescue / Harmony,81505,Colorado,United States,261,-108.583769,39.085556
Happy Tails,80016,Colorado,United States,289,-106.43374,39.595992
Harley's Dream,80513,Colorado,United States,592,-105.098934,40.307618
Harley's Hope Foundation,80908,Colorado,United States,595,-104.6864455,39.0211758
Harmony Animal Matchmaker And Sanctuary,81505,Colorado,United States,274,-108.5987957,39.1046561
Havok's Wolfpack,80302,Colorado,United States,78,-105.2862241,40.0166109
Headwaters Hounds Kennel,81611,Colorado,United States,559,-106.8352329,39.1975472
"Heart And Soul Dogs, Llc",97211,Colorado,United States,505,-104.918954,39.253192
Hearthfire Keep Fka Happy Haven Farm And Sanctuary,80103,Colorado,United States,362,-104.1899423,39.7740998
Hemosolutions,80917,Colorado,United States,7,-104.754889,38.879619
"High Country Basset Hound Rescue And Adoption Service, Inc",80620,Colorado,United States,222,-104.7089714,40.3789297
"Highland Veterinary Clinic, Pc",44321,Colorado,United States,21,-79.848927,37.805824
Ho - Bo Care Boxer Rescue,80209,Colorado,United States,211,-104.965148,39.71191
Hoffmann's Little Haven,80135,Colorado,United States,455,-105.0012364,39.3462091
"Home Sweet Home Rescue, Llc",80112,Colorado,United States,415,-104.8709549,39.5733964
Homecomings Dog Rescue,80226,Colorado,United States,442,-105.0808118,39.711106
Homeless Boxer Care,80209,Colorado,United States,403,-104.965148,39.71191
Homeward Bound Rescue Of Colorado,80634,Colorado,United States,224,-104.7552979,40.4053051
"Hoof And Paw, Inc",81424,Colorado,United States,258,-108.5458994,38.2685872
Hope For Animals - Clear Creek Rescue,80444,Colorado,United States,85,-105.6927675,39.7123274
House Of Exotics,81212,Colorado,United States,533,-105.2426728,38.4500182
Humane Society Of Boulder Valley,80301,Colorado,United States,147,-105.226499,40.022379
"Humane Society Of Fremont County, Inc",81212,Colorado,United States,126,-105.2426728,38.4500182
Humane Society Of Moab Valley,84532,Colorado,United States,143,-109.532107,38.564746
Humane Society Of Pagosa Springs,81147,Colorado,United States,154,-107.065577,37.283514
Humane Society Of St Thomas,802,Colorado,United States,156,-64.90449,18.33434
Humane Society Of The Pikes Peak Region,80905,Colorado,United States,23,-104.83714,38.826018
"Humane Society Of The South Platte Valley, Inc",80120,Colorado,United States,35,-105.013259,39.628051
"Humane Society Of Weld County, Inc",80631,Colorado,United States,150,-104.705985,40.369431
Hutchinson Animal Shelter,67501,Colorado,United States,337,-97.914362,38.034403
"Indigo Mountain Nature Center, Inc",80827,Colorado,United States,375,-105.502686,39.019593
Inge Trump,,Colorado,United States,478,-105.778951,38.853548
Innocent Paws Puppy Rescue,80539,Colorado,United States,498,-105.0705872,40.4216643
"Insidereef, Llc",80918,Colorado,United States,536,-104.7774729,38.9110462
Intermountain Humane Society,80470,Colorado,United States,148,-105.399541,39.462794
"International Hearing Dog, Inc",80640,Colorado,United States,225,-104.918744,39.858355
IresQ,80437,Colorado,United States,82,-105.343261,39.650171
Izzy's Place Senior Dog Rescue,80524,Colorado,United States,516,-105.049207,40.61255
Jailbreak Husky Rescue,80219,Colorado,United States,61,-105.0334568,39.7003179
Jewels Senior Dog Rescue,80220,Colorado,United States,490,-104.915035,39.73268
"Jj's Helping Paws, Inc",81212,Colorado,United States,594,-105.2426728,38.4500182
"Journey Home Animal Care Center, Inc",80503,Colorado,United States,96,-105.16373,40.149198
Karl's Canine Krew,,Colorado,United States,298,-102.52122,38.14378
Karra,,Colorado,United States,506,-105.5478164,38.99855056
Katmandu Paonia,81428,Colorado,United States,259,-107.5826804,38.86697005
"Kneady Kitten Rescue, Inc",80220,Colorado,United States,434,-104.915035,39.73268
Kot Kitten Korner,80501,Colorado,United States,93,-105.1043422,40.1706825
L.O.L.A's Rescue,80018,Colorado,United States,314,-104.7052336,39.7007514
La Junta Animal Shelter,81050,Colorado,United States,353,-103.5164593,38.0396028
La Plata County Humane Society,81303,Colorado,United States,130,-107.867371,37.232788
Lamar Animal Shelter,64759,Colorado,United States,33,-102.602746,38.04848
Larimer Humane Society,80538,Colorado,United States,159,-105.0121,40.4623
Laws4Paws,81005,Colorado,United States,248,-104.6765673,38.2390751
Leadville Lake County Animal Shelter,80461,Colorado,United States,45,-106.2996709,39.2407695
Life Is Better Rescue,80219,Colorado,United States,295,-105.0864,39.6524
Life Is Better Rescue (Cat Shelter),80219,Colorado,United States,157,-105.0864,39.6524
Life Is Better Rescue (Dog Shelter),80219,Colorado,United States,333,-105.0864,39.6524
Lifeline Puppy Rescue,80602,Colorado,United States,110,-104.9158353,39.9418763
Lightshine Canine: A Rez Dog Rescue,80501,Colorado,United States,94,-105.1043422,40.1706825
Lisa Parker's Puppies,81301,Colorado,United States,425,-107.852156,37.330885
Little Rescues On The Prairie,80705,Colorado,United States,228,-103.8280035,40.2696792
Live Love Animal Rescue,80123,Colorado,United States,271,-105.072128,39.617626
Live Love Animal Rescue,80123,Colorado,United States,510,-105.072128,39.617626
Lk Kennel,97478,Colorado,United States,561,-106.34484,39.20238
Logan County Humane Society,42276,Colorado,United States,31,-86.870486,36.862904
"Loma Cat House, Inc",81501,Colorado,United States,260,-108.559687,39.058233
Longmont Friends Of Feral And Abandoned Cats,80504,Colorado,United States,98,-105.018393,40.1647284
Longmont Humane Society,80501,Colorado,United States,47,-105.125861,40.152902
"Lost Our Home Pet Rescue Of Western Colorado, Inc",81502,Colorado,United States,412,-108.566116,39.068711
Lucille's Voice Animal Education And Emergency Rescue Center,81240,Colorado,United States,424,-105.0100403,38.4267126
Lucky Day Animal Rescue,81612,Colorado,United States,263,-106.821759,39.1988328
Lucky Paws Rescue,81612,Colorado,United States,383,-106.821759,39.1988328
Lucy Peckham,,Colorado,United States,299,-104.7540137,40.3056689
Majestic Canine Rescue,80864,Colorado,United States,232,-104.199555,38.7527646
Maricopa County Animal Care And Control,85062,Colorado,United States,579,-112.117978,33.424966
Mattersville,47542,Colorado,United States,359,-105.178116,39.210353
Mattersville Yoder,80864,Colorado,United States,378,-105.178116,39.210353
Maxfund Animal Adoption Center,80204,Colorado,United States,22,-105.0204992,39.7355756
Mckinley County Humane Society,87301,Colorado,United States,347,-108.712874,35.529162
Meeker Cat Coalition,81641,Colorado,United States,264,-107.8917125,40.0376282
Meow Manor,80237,Colorado,United States,279,-104.8999273,39.6387328
Mesa County Animal Services,81527,Colorado,United States,572,-108.4670249,38.9904691
Mesa County Animal Services,81527,Colorado,United States,577,-108.4670249,38.9904691
Metro Denver Parrot Rescue - The Perch,80012,Colorado,United States,428,-104.8410168,39.6956098
Midamerica Boston Terrier Rescue,68132,Colorado,United States,301,-96.1467,41.2951
"Mile High Canine Rescue, Inc",80126,Colorado,United States,185,-104.958278,39.545173
"Mile High Canine Rescue, Inc",80126,Colorado,United States,448,-104.958278,39.545173
"Mile High Dachshunds Rescue, Inc",80004,Colorado,United States,304,-105.1215663,39.8119204
Mile High German Shorthaired Pointer Rescue,80504,Colorado,United States,99,-105.018393,40.1647284
"Mile High Labrador Retriever Mission, Inc",80038,Colorado,United States,320,-105.067902,39.915965
"Mile High Meowies, Inc",80016,Colorado,United States,267,-104.7360364,39.5908185
Mile High Weimaraner Rescue,80498,Colorado,United States,92,-106.1365337,39.7278131
"Mo Min Pin Rescue, Corp",80908,Colorado,United States,387,-104.6864455,39.0211758
Moe Moe's Bulldog Rescue Of The Rockies,80223,Colorado,United States,435,-105.0024501,39.7006652
Moe Moe's Rescue Of The Rockies,80138,Colorado,United States,486,-104.714331,39.5061834
"Moms And Mutts Colorado Rescue For Pregnant And Nursing Dogs, Llc",80129,Colorado,United States,188,-105.0084104,39.5531841
Montrose Animal Services,81401,Colorado,United States,576,-108.4670249,38.9904691
Montrose Animal Shelter,81401,Colorado,United States,331,-107.916229,38.512007
Mother Gaia Animal Rescue,80209,Colorado,United States,212,-104.965148,39.71191
Mountain High Collie And Sheltie Rescue,81007,Colorado,United States,423,-104.779467,38.332823
"Mountain High Service Dogs, Inc",80123,Colorado,United States,483,-104.765671,38.791332
Mountain Pet Rescue,80482,Colorado,United States,91,-105.7803762,39.9124789
Must Love Pups Formerly New Wave Pups,80209,Colorado,United States,404,-104.965148,39.71191
Mutts N Such Rescue,80453,Colorado,United States,86,-105.2437902,39.6659659
"My Fairy Dawg Mother Rescue, Inc",80027,Colorado,United States,318,-105.152346,39.965721
"My Second Home Rescue, Inc",80016,Colorado,United States,311,-104.7360364,39.5908185
"National Canine Advocacy Group, Inc",80130,Colorado,United States,598,-104.924168,39.542893
National Mill Dog Rescue,80831,Colorado,United States,231,-104.4419008,38.9090859
Nebraska Humane Society,68137,Colorado,United States,338,-96.050886,41.305407
New Favorite Day,80121,Colorado,United States,270,-104.9554076,39.6114762
"New Hope Cattle Dogs, Rescue And Rehoming",80907,Colorado,United States,297,-104.8244821,38.8777728
Nikeno's Second Chances,80215,Colorado,United States,461,-105.095199,39.739049
No Feline Left Behind,80401,Colorado,United States,436,-104.813488,39.789718
No Hound Unhomed,80112,Colorado,United States,269,-104.8709549,39.5733964
Noah's Ark Animal Welfare Association,81147,Colorado,United States,155,-104.487793,37.178577
Noco Cat Cafe,80526,Colorado,United States,535,-105.075299,40.396861
Noco Humane,80524,Colorado,United States,26,-105.049207,40.61255
Noco Humane - Larimer County,,Colorado,United States,28,-105.077799,40.514854
Noco Humane - Weld County,,Colorado,United States,29,-104.705985,40.369431
Nocokitties,80526,Colorado,United States,467,-105.11165,40.5409358
North Star Siberian Husky Rescue,80219,Colorado,United States,440,-105.0334568,39.7003179
Northern Colorado Herpetological Society,80524,Colorado,United States,296,-105.049207,40.61255
Obe's Angels Rescue,80209,Colorado,United States,213,-108.5561,37.4839
"Oh Be Dogful Pet Ranch, Inc",81615,Colorado,United States,381,-106.945901,38.843986
Oh Be Dogful Rescue,80220,Colorado,United States,418,-104.915035,39.73268
Old Dogs New Digs,80121,Colorado,United States,176,-104.9554076,39.6114762
Old Soul Canine Rescue,80110,Colorado,United States,169,-105.0042141,39.6414157
Once Upon A Dog,80209,Colorado,United States,417,-104.965148,39.71191
One Dog At A Time Colorado,80905,Colorado,United States,234,-104.8341973,38.8139004
Operation Secondhand Paws,80112,Colorado,United States,401,-104.8709549,39.5733964
"Opposable Thumb Marekting, Llc",80016,Colorado,United States,553,-104.7360364,39.5908185
Outpaws,80222,Colorado,United States,419,-104.928589,39.674829
Overturf Animal Sanctuary,80134,Colorado,United States,368,-104.7871924,39.515913
Painted Paws For Veterans,80216,Colorado,United States,463,-104.437274,39.005252
Paired Souls Animal Rescue And Rehabilitation,80540,Colorado,United States,108,-105.3197375,40.2381362
Pal's Forever Animal Rescue,80120,Colorado,United States,509,-105.004674,39.596031
Pampa Animal Welfare Society,81004,Colorado,United States,342,-104.639605,38.215035
"Par Group, Llc",,Colorado,United States,604,-105.5478164,38.99855056
Paradise Animal Welfare Society,81224,Colorado,United States,127,-106.9430941,38.8488702
Paragon Service Dogs,80112,Colorado,United States,172,-104.882391,39.578869
Parker Exotic Pets,80134,Colorado,United States,466,-104.781807,39.556725
Parker's Animal Rescue,80134,Colorado,United States,196,-107.871943,37.297346
Paws And Effect Canine Rescue Of Colorado,80124,Colorado,United States,511,-104.885605,39.540524
Paws And People,80004,Colorado,United States,305,-105.1215663,39.8119204
Paws For Life Animal Welfare And Protection Society,81008,Colorado,United States,343,-104.6237755,38.3202916
Paws On The Ground Colorado,80104,Colorado,United States,324,-104.8367434,39.3603485
Pawsco,80206,Colorado,United States,210,-104.951733,39.734375
Pawsecond Chance Rescue And Thrift,80209,Colorado,United States,214,-103.832876,40.269122
"Pawsitive Reaction, Inc",80126,Colorado,United States,449,-104.958278,39.545173
Pawsitive Restorations Animal Rescue,80918,Colorado,United States,242,-104.7774729,38.9110462
Peaceful Animal Adoption Shelter (PAAS),80863,Colorado,United States,341,-105.0661342,39.0037109
Peak View Animal Hospital,81212,Colorado,United States,9,-104.053088,38.093542
"Peanut's Place Bully Rescue, Inc",80864,Colorado,United States,233,-104.199555,38.7527646
Pearl's Sunrize Sanctuary,,Colorado,United States,358,-106.06504,38.585796
"Pei People Shar Pei Rescue, Inc",80209,Colorado,United States,215,-104.965148,39.71191
"Pembroke Welsh Corgi Club Of The Rockies Rescue, Inc",80130,Colorado,United States,189,-104.924168,39.542893
Pepper's Senior Dog Sanctuary,80126,Colorado,United States,367,-104.958278,39.545173
Perfect Pets,80909,Colorado,United States,530,-104.959562,39.592706
Perfect Unions Animal Rescue Foundation,80126,Colorado,United States,603,-104.958278,39.545173
"Pet Association Of Estes Park, Inc",80517,Colorado,United States,593,-105.515149,40.355875
"Pet Care Specialties, Llc",,Colorado,United States,552,-119.283573,46.271695
"Pet Paradise, Inc",80212,Colorado,United States,474,-104.663556,38.245874
Pet Project,80215,Colorado,United States,407,-105.1136259,39.7448093
"Pet World, Inc",80538,Colorado,United States,527,-105.0776131,40.42997
Pets First Animal Hospital,80126,Colorado,United States,15,-104.684578,38.902117
"Pets Plus, Llc",80111,Colorado,United States,462,-104.888136,39.614367
Pets R People Too,80112,Colorado,United States,464,-103.788906,40.254163
Petsmart Aurora Animal Shelter,80011,Colorado,United States,163,-104.804225,39.761568
Pikes Peak Parrot Rescue,80905,Colorado,United States,384,-104.8341973,38.8139004
Placing Paws,80204,Colorado,United States,402,-105.0204992,39.7355756
"Planned Pethood Plus, Inc",80221,Colorado,United States,2,-108.524226,39.077957
Platte Valley Veterinary,80550,Colorado,United States,5,-104.855504,40.523025
Platteville Police Department,80651,Colorado,United States,564,-104.823695,40.21783
Pointerrescue,80107,Colorado,United States,327,-104.5959824,39.4058887
"Polar Opposite Kennels, Llc",80134,Colorado,United States,550,-104.7871924,39.515913
Polaris Alaskan Malamute Rescue,80134,Colorado,United States,197,-104.7871924,39.515913
Poso Dog Rescue,,Colorado,United States,479,-104.24497,37.37224
Pound Pitties Dog Rescue,80220,Colorado,United States,63,-104.915035,39.73268
Pranadogs Behavior And Rehab Ctr,80524,Colorado,United States,524,-105.049207,40.61255
Prickly Paws Hedgehogs,80108,Colorado,United States,386,-104.856713,39.42962
Prison Trained K - 9 Companion Program,81003,Colorado,United States,247,-104.6237794,38.2805839
PTSD / TBI Dogs And Tags Of Wyoming,82001,Colorado,United States,426,-104.718569,41.191514
Pueblo Animal Services,81003,Colorado,United States,583,-104.580372,38.25618
"Puppies N Stuff, Llc",80007,Colorado,United States,556,-105.185166,39.837728
Puppy Kisses Ranch,80108,Colorado,United States,554,-104.856713,39.42962
Purrendipity,80209,Colorado,United States,459,-104.965148,39.71191
Purrfect Pause Cat Cafe,80205,Colorado,United States,470,-105.229801,40.01411
Rachel's Forgotten Felines,80014,Colorado,United States,309,-104.8416471,39.6631553
Rancho Amistad,80134,Colorado,United States,369,-104.7871924,39.515913
Rangely Animal Shelter,81648,Colorado,United States,356,-108.809512,40.093608
Red Fern Animal Rescue,80209,Colorado,United States,216,-104.965148,39.71191
Red Hill Animal Health Center,80907,Colorado,United States,6,-107.21987,39.412594
Reptile And Amphibian Center Of The Rockies,80526,Colorado,United States,105,-105.11165,40.5409358
Rescued For Life,80134,Colorado,United States,198,-104.7871924,39.515913
Rescuing Unwanted Furry Friends Sanctuary,80209,Colorado,United States,290,-104.965148,39.71191
"Retriever Rescue Of Colorado, Inc",80401,Colorado,United States,79,-105.1925274,39.7373556
"Rezdawg Rescue, Inc",80026,Colorado,United States,317,-105.0992873,39.9942396
Rifle Animal Shelter,81650,Colorado,United States,332,-107.795435,39.540455
Riverdale Animal Shelter,80601,Colorado,United States,51,-104.886699,39.917908
Rocky Ford Animal Shelter,81067,Colorado,United States,329,-103.719699,38.050266
Rocky Ford Police Department,81067,Colorado,United States,581,-103.7216157,38.0527986
"Rocky Mountain Cocker Rescue, Inc",80122,Colorado,United States,177,-104.9602553,39.5820082
"Rocky Mountain Collie And Sheltie Rescue, Inc",81007,Colorado,United States,250,-104.779467,38.332823
Rocky Mountain Dachshund Rescue,80126,Colorado,United States,186,-104.958278,39.545173
"Rocky Mountain Feline Rescue, Inc",80223,Colorado,United States,66,-104.992029,39.673215
Rocky Mountain French Bulldog Rescue,80016,Colorado,United States,312,-104.7360364,39.5908185
Rocky Mountain German Shorthaired Pointer Rescue,80107,Colorado,United States,396,-104.5959824,39.4058887
"Rocky Mountain Great Dane Rescue, Inc",80228,Colorado,United States,70,-105.1410316,39.6956309
Rocky Mountain House Rabbit Rescue,80516,Colorado,United States,101,-105.0412428,40.0388188
Rocky Mountain Lab Rescue,80038,Colorado,United States,321,-105.067902,39.915965
Rocky Mountain Old English Sheepdog Rescue,80132,Colorado,United States,193,-104.8459213,39.0983576
Rocky Mountain Puppy Rescue,80513,Colorado,United States,100,-105.098934,40.307618
"Rocky Mountain Scottie Rescue, Inc",80209,Colorado,United States,217,-104.965148,39.71191
Rocky Mountain Siamese Rescue,80132,Colorado,United States,431,-104.8459213,39.0983576
Rocky Mountain Society Of Aviculture,80204,Colorado,United States,432,-105.0204992,39.7355756
Rocky Mountain Wildheart,80814,Colorado,United States,499,-105.1695238,38.8652466
Rocky Mountain Yorkie Rescue,80108,Colorado,United States,167,-104.856713,39.42962
Roice - Hurst Humane Society,81505,Colorado,United States,25,-108.533278,39.057618
Rottie Aid,80162,Colorado,United States,488,-105.1054184,39.596134
Routt County Humane Society,80487,Colorado,United States,46,-106.825711,40.476192
Ruff Around The Edges,80516,Colorado,United States,495,-108.526014,39.076946
Ruff Rescue,80210,Colorado,United States,388,-104.959377,39.677389
Rugby's Rescue House,80138,Colorado,United States,205,-104.714331,39.5061834
Running Dog Ranch Animal Rescue,80465,Colorado,United States,371,-105.18651,39.604536
Safe Harbor Lab Rescue,80403,Colorado,United States,80,-105.216089,39.752932
Safe Place For Pets,80909,Colorado,United States,115,-104.7746774,38.851546
San Luis Valley Animal Welfare Society,81101,Colorado,United States,123,-105.8728626,37.4709282
Save The Giants,80124,Colorado,United States,182,-104.885605,39.540524
Saving Dobermankind Animal Rescue,80123,Colorado,United States,179,-105.072128,39.617626
Saving Dobermankind Animal Rescue,80123,Colorado,United States,272,-105.072128,39.617626
Scales N' Tails (St Boulder),80234,Colorado,United States,543,-105.0061192,39.9134933
Scales N' Tails (St East),80234,Colorado,United States,544,-104.999582,39.883867
Scales N' Tails (St North),80234,Colorado,United States,545,-104.999582,39.883867
Scales N' Tails Northglenn,80234,Colorado,United States,520,-104.999582,39.883867
"Scroungy Dogs And Pretty Pups Rescue, Inc",80920,Colorado,United States,246,-104.7710803,38.9510731
Second Chance Animal Rescue Foundation,80910,Colorado,United States,240,-104.769291,38.815319
"Second Chance Humane Society, Inc",81432,Colorado,United States,136,-107.739947,38.175627
"Second Chance Jack Animal Rescue, Inc",80210,Colorado,United States,406,-104.959377,39.677389
Shannon Cauthen,,Colorado,United States,427,-104.855161,39.40621
Sloppy Kisses Animal Rescue,80210,Colorado,United States,56,-104.959377,39.677389
Slv Spay And Neuter Alliance,81101,Colorado,United States,13,-105.8728626,37.4709282
Small Paws Retirement Village,80016,Colorado,United States,284,-104.7360364,39.5908185
Small Senior Paws Retirement Village,80016,Colorado,United States,360,-104.7360364,39.5908185
Snow Buddy,80447,Colorado,United States,538,-105.8510196,40.235475
Snow Buddy Dog Sled Tours,80447,Colorado,United States,546,-106.831325,40.489796
Snow Buddy Sled Dog Adventures,80447,Colorado,United States,551,-105.8510196,40.235475
Snow Capped Shepherd Rescue,80016,Colorado,United States,313,-104.7360364,39.5908185
Someone2Love,80129,Colorado,United States,451,-105.0084104,39.5531841
"Soul Dogs, Inc",80465,Colorado,United States,292,-105.066083,39.859939
Southern Colorado Spay And Neuter Association,81003,Colorado,United States,8,-104.643362,38.239031
"Southern Mutts Rescue, Inc",81008,Colorado,United States,411,-104.6237755,38.3202916
Special Needs Animal Rescue League (SNARL),80907,Colorado,United States,237,-104.8244821,38.8777728
Spirit Keeper Animal Sanctuary,80827,Colorado,United States,376,-105.502686,39.019593
"Springer Spaniel Rescue, Inc",80161,Colorado,United States,209,-104.9630462,39.5951787
Springfield,80807,Colorado,United States,578,-102.619025,37.400382
St Boulder,80234,Colorado,United States,521,-105.0061192,39.9134933
St East,80234,Colorado,United States,522,-105.0061192,39.9134933
St East And St North,80234,Colorado,United States,537,-105.021858,39.650728
St North,80234,Colorado,United States,523,-105.0061192,39.9134933
Stacy Rochelle,,Colorado,United States,480,-105.5478164,38.99855056
Stay Animal Rescue,80123,Colorado,United States,180,-105.072128,39.617626
Steel City Alley Cats Coalition,81004,Colorado,United States,437,-104.532563,38.2442
Sterling Ranch Specialty Shelter,80126,Colorado,United States,164,-104.958278,39.545173
Steven J Bentley Homeward Bound Facility,80401,Colorado,United States,158,-105.1925274,39.7373556
Stray And Orphaned Animal Rescue (SOAR),80916,Colorado,United States,241,-104.740421,38.813364
Summit County Animal Control And Shelter,80424,Colorado,United States,40,-106.848339,39.651868
Summit Dog Rescue,80443,Colorado,United States,84,-106.0940435,39.58363732
Sunrise Service Dogs,80539,Colorado,United States,107,-105.0705872,40.4216643
Sunshine Canyon Dog Rescue,80401,Colorado,United States,492,-105.1925274,39.7373556
Surface Creek Animal Shelter,81413,Colorado,United States,133,-107.924956,38.891949
"Tagg Rescue, Inc",80123,Colorado,United States,430,-105.072128,39.617626
Tammy Swanson,,Colorado,United States,481,-105.5478164,38.99855056
Taysia Blue Siberian Husky Rescue Nebraska,80219,Colorado,United States,62,-105.0334568,39.7003179
Team Leo Animal Rescue,80134,Colorado,United States,199,-104.7871924,39.515913
"Teller County Regional Animal Shelter, Inc",80863,Colorado,United States,114,-105.150065,38.94383
Telluride Humane Society,81435,Colorado,United States,137,-107.846343,37.936551
The Animal Assistance League And Sanctuary,80214,Colorado,United States,285,-105.075025,39.7430713
"The Animal Debt Project, Inc",80123,Colorado,United States,597,-105.072128,39.617626
The Animal Hospital Of Telluride,81435,Colorado,United States,17,-107.913612,37.947641
The Animal Interest League And Sanctuary,80214,Colorado,United States,281,-108.079809,38.741134
The Animal Rescue Colorado,80120,Colorado,United States,429,-107.23574,39.473155
The Biscuit Factory Cat Lounge,80205,Colorado,United States,472,-104.862499,38.847627
The Denver Dumb Friends League,80231,Colorado,United States,334,-104.902524,39.679015
The Dog Ranch,80465,Colorado,United States,277,-105.101741,40.264064
The Feline Fix,80223,Colorado,United States,3,-104.930006,39.807582
The Forgotten Bull Terriers,80504,Colorado,United States,494,-105.018393,40.1647284
"The Gabriel Foundation, Inc",80521,Colorado,United States,48,-95.573623,29.99458
"The Good Dog Rescue, Llc",80122,Colorado,United States,178,-104.995836,39.955104
The Humane Society Of Boulder Valley,80301,Colorado,United States,38,-105.226499,40.022379
"The Humane Society Of Pagosa Springs, Inc",81157,Colorado,United States,125,-107.065577,37.283514
The Lazarus Fund,80908,Colorado,United States,600,-104.6864455,39.0211758
The Meeker Cat Coalition,81641,Colorado,United States,477,-107.8917125,40.0376282
The Misfits Dog Rescue,80112,Colorado,United States,173,-104.8709549,39.5733964
The Montrose Bully Breed Club,81401,Colorado,United States,257,-107.861307,38.483113
The Old Mutt Hut,80112,Colorado,United States,365,-104.8709549,39.5733964
The Snuggle Is Real Animal Rescue,80138,Colorado,United States,457,-104.714331,39.5061834
"The Sunrise Foundation, Ltd",80401,Colorado,United States,599,-105.1925274,39.7373556
The Tullio's,80214,Colorado,United States,514,-105.075025,39.7430713
Three Little Pitties Rescue,77380,Colorado,United States,507,-95.22606,29.530625
"Thunder Puppy K9 Rehabilitation And Rehoming, Inc",80138,Colorado,United States,487,-104.714331,39.5061834
Toby Darwin Foundation,80124,Colorado,United States,601,-104.885605,39.540524
"Tortoise And The Hare Common To Exotic Pets, Llc",80525,Colorado,United States,525,-107.875154,38.480869
Town Of Akron,80720,Colorado,United States,565,-103.213092,40.160672
Town Of Cheyenne Wells,80815,Colorado,United States,566,-102.350603,38.820558
Town Of Dove Creek,81324,Colorado,United States,585,-108.911782,37.7650321
Town Of La Veta Animal Shelter,81055,Colorado,United States,119,-105.008746,37.508687
Town Of Limon Animal Shelter,80828,Colorado,United States,113,-103.687925,39.261015
Town Of Meeker Animal Control Facility,81641,Colorado,United States,573,-107.8917125,40.0376282
Town Of Naturita Animal Shelter,81422,Colorado,United States,345,-108.5707503,38.2174068
Town Of Ordway,81036,Colorado,United States,567,-102.7757202,38.4819825
Town Of Platteville Animal Control,80651,Colorado,United States,574,-104.8251523,40.2314035
Town Of Rangely Animal Shelter,81648,Colorado,United States,142,-108.809512,40.093608
Town Of Springfield,81073,Colorado,United States,568,-102.62436,37.40709
Town Of Telluride,81435,Colorado,United States,587,-107.815902,37.938295
Town Of Walden Animal Shelter,80480,Colorado,United States,149,-106.2766498,40.729601
Town Of Walsh,81090,Colorado,United States,575,-102.2815811,37.3838887
Town Of Westcliffe,81252,Colorado,United States,571,-105.4670099,38.13633
Trevor's Animal Rescue,80918,Colorado,United States,243,-104.7774729,38.9110462
True Blue Pet Rescue,80031,Colorado,United States,394,-105.0389909,39.868973
Tumbleweed Country Kennels,80634,Colorado,United States,539,-104.685159,38.648984
Twice Purrfect Feline Rescue,80909,Colorado,United States,239,-104.7746774,38.851546
Two Girls Four Paws All Breed Rescue,80138,Colorado,United States,512,-104.714331,39.5061834
"Under The Sun Doggie Daycare And Dog Park, Llc",80226,Colorado,United States,541,-105.0808118,39.711106
Underdog Animal Rescue And Rehab,80108,Colorado,United States,168,-109.4604,38.5003
Underdogs,80134,Colorado,United States,485,-104.7871924,39.515913
Until They'Re Home,80132,Colorado,United States,194,-104.8459213,39.0983576
"Up Pup And Away, Inc",80130,Colorado,United States,190,-104.924168,39.542893
Upper Rio Grande Animal Society (Conour),81149,Colorado,United States,124,-106.1422369,38.0845843
Valley Humane League,81601,Colorado,United States,336,-107.321221,39.5268499
Valley Pets,80226,Colorado,United States,518,-104.734099,38.739308
"Vetcor Of Colorado Springs, Llc, Red Hill Animal Health Center",80907,Colorado,United States,12,-104.8244821,38.8777728
"Vibrant Pet, Llc",80524,Colorado,United States,547,-105.049207,40.61255
"Victory Service Dogs, Inc",80134,Colorado,United States,200,-104.739456,38.844608
"Vintage Dog Rescue, Inc",80002,Colorado,United States,303,-105.0955689,39.7942211
Voices Of The Wild Foundation,80237,Colorado,United States,606,-104.8999273,39.6387328
W.O.L.F. Sanctuary,80544,Colorado,United States,372,-105.1733358,40.1031435
Wagging Dog Rescue,80111,Colorado,United States,170,-104.888136,39.614367
Wags And Whiskers Grooming / Boarding,80226,Colorado,United States,542,-104.706162,38.311467
Walsenburg Animal Shelter,81089,Colorado,United States,152,-104.821366,37.607076
Walsh Dog Pound,81090,Colorado,United States,570,-102.2815811,37.3838887
Walsh Police Department,81090,Colorado,United States,584,-102.2783891,37.3871169
Western Australian Shepherd Rescue,80210,Colorado,United States,489,-104.959377,39.677389
Western Border Collie Rescue,80104,Colorado,United States,325,-104.8367434,39.3603485
"Westie Rescue Network, Inc",80134,Colorado,United States,201,-105.0217,40.004
"Wet Mountain Animal Welfare, Llc",81252,Colorado,United States,254,-105.4143535,38.1352174
"Whimpers To Wags, Inc",80111,Colorado,United States,171,-104.888136,39.614367
White Rose Sanctuary,80108,Colorado,United States,363,-104.8243611,39.37827096
Wild Blue Animal Rescue And Sanctuary,80470,Colorado,United States,288,-105.3867555,39.4637188
Wild Blue Cats,80470,Colorado,United States,90,-105.3867555,39.4637188
Wild Things Exotic Pets,80915,Colorado,United States,548,-104.735778,40.4211
Wild Willow Sanctuary,80108,Colorado,United States,364,-104.856713,39.42962
William Adamson / Six Paws Sanctuary,80908,Colorado,United States,379,-104.6864455,39.0211758
Willow Run Sanctuary And Adoptions (WRSA),80421,Colorado,United States,273,-79.075031,41.043283
Wolfwood,80814,Colorado,United States,374,-105.1758334,38.9334702
Woof And Willow Company,80209,Colorado,United States,218,-104.965148,39.71191
World Of Birds,80104,Colorado,United States,460,-105.083084,39.748101
"X And B Pets, Inc",80220,Colorado,United States,555,-104.915035,39.73268
Yoga Animals Rescue Foundation,80209,Colorado,United States,591,-104.965148,39.71191